              M50 Cartesian                         M50 Keplerian  
    -----------------------------------       --------------------------------
     X    =        3245477.26                 A    =         6776582.20  meter
     Y    =       -2648227.68  meter          E    =           .0016416
     Z    =       -5340899.16                 I    =           51.90512
     XDOT =       4946.201440                 Wp   =           82.90659
     YDOT =       5844.004893  meter/sec      RA   =           49.10978  deg
     ZDOT =        110.208209                 TA   =          188.12802
                                              MA   =          188.15465
                                              Ha   =            221.240  n.mi
                                              Hp   =            213.786
 
              M50 Cartesian                         J2K Cartesian  
    -----------------------------------       --------------------------------
     X    =       10647891.28                 X    =         3300793.31
     Y    =       -8688411.01  feet           Y    =        -2611626.00  meter
     Z    =      -17522635.06                 Z    =        -5324998.55
     XDOT =      16227.695013                 XDOT =        4879.949357
     YDOT =      19173.244399  feet/sec       YDOT =        5898.946185  meter/sec
     ZDOT =        361.575488                 ZDOT =         134.074233
 
              TDR Cartesian                         TDR Cartesian  
    -----------------------------------       --------------------------------
     X    =       -5720493.32                 X    =        -1743606.36
     Y    =      -12592721.87  feet           Y    =        -3838261.63  meter
     Z    =      -17453026.27                 Z    =        -5319682.41
     XDOT =      21705.428283                 XDOT =        6615.814541
     YDOT =     -10493.155521  feet/sec       YDOT =       -3198.313803  meter/sec
     ZDOT =        464.199286                 ZDOT =         141.487942
  
  
    The mean element set is posted at the UTC for which position is
    just north of the next ascending node relative to the above
    vector time
 
 
    TWO LINE MEAN ELEMENT SET
  
    ISS
    1 25544U 98067A   16098.68251916  .00016717  00000-0  10270-3 0  9144
    2 25544  51.6436  49.6932 0002646  32.8507 327.2810 15.54397043 34015
  
  
    Satellite: ISS
    Catalog Number: 25544
    Epoch time:      16098.68251916   =   yrday.fracday
    Element set:     914
    Inclination:       51.6436  deg
    RA of node:        49.6932  deg
    Eccentricity:     .0002646     
    Arg of perigee:    32.8507  deg
    Mean anomaly:     327.2810  deg
    Mean motion:   15.54397043  rev/day
    Decay rate:    1.67170E-04  rev/day^2
    Epoch rev:            3401
    Checksum:              313
 
 
    Coasting Arc #16 (Orbit 3416)
    ---------------------------------------
 
    Vector Time (GMT): 2016/099/16:00:00.000
    Vector Time (MET): N/A
    Weight (LBS)     : 919477.5
 
              M50 Cartesian                         M50 Keplerian  
    -----------------------------------       --------------------------------
     X    =       -4436813.29                 A    =         6777961.87  meter
     Y    =        1148992.83  meter          E    =           .0008692
     Z    =        4989613.38                 I    =           51.88941
     XDOT =      -3997.918465                 Wp   =           49.82914
     YDOT =      -6195.028526  meter/sec      RA   =           44.12616  deg
     ZDOT =      -2120.517570                 TA   =           60.78035
                                              MA   =           60.69346
                                              Ha   =            221.287  n.mi
                                              Hp   =            213.634
 
              M50 Cartesian                         J2K Cartesian  
    -----------------------------------       --------------------------------
     X    =      -14556474.06                 X    =        -4473569.63
     Y    =        3769661.51  feet           Y    =         1099172.46  meter
     Z    =       16370122.64                 Z    =         4967970.72
     XDOT =     -13116.530397                 XDOT =       -3918.046259
     YDOT =     -20324.896739  feet/sec       YDOT =       -6239.289550  meter/sec
     ZDOT =      -6957.078642                 ZDOT =       -2139.744068
 
              TDR Cartesian                         TDR Cartesian  
    -----------------------------------       --------------------------------
     X    =         242272.33                 X    =           73844.61
     Y    =       15136725.08  feet           Y    =         4613673.80  meter
     Z    =       16275842.79                 Z    =         4960876.88
     XDOT =     -21712.688399                 XDOT =       -6618.027424
     YDOT =       7944.760803  feet/sec       YDOT =        2421.563093  meter/sec
     ZDOT =      -7039.454416                 ZDOT =       -2145.625706
  
  
    The mean element set is posted at the UTC for which position is
    just north of the next ascending node relative to the above
    vector time
 
 
    TWO LINE MEAN ELEMENT SET
  
    ISS
    1 25544U 98067A   16099.71117998  .00016717  00000-0  10270-3 0  9151
    2 25544  51.6446  44.5638 0002590  32.9400 327.1914 15.54441848 34178
  
  
    Satellite: ISS
    Catalog Number: 25544
    Epoch time:      16099.71117998   =   yrday.fracday
    Element set:     915
    Inclination:       51.6446  deg
    RA of node:        44.5638  deg
    Eccentricity:     .0002590     
    Arg of perigee:    32.9400  deg
    Mean anomaly:     327.1914  deg
    Mean motion:   15.54441848  rev/day
    Decay rate:    1.67170E-04  rev/day^2
    Epoch rev:            3417
    Checksum:              323
 
 
    Coasting Arc #17 (Orbit 3431)
    ---------------------------------------
 
    Vector Time (GMT): 2016/100/16:00:00.000
    Vector Time (MET): N/A
    Weight (LBS)     : 919477.5
 
              M50 Cartesian                         M50 Keplerian  
    -----------------------------------       --------------------------------
     X    =        5408205.61                 A    =         6781540.85  meter
     Y    =         263662.59  meter          E    =           .0008427
     Z    =       -4090351.93                 I    =           51.87715
     XDOT =       2630.462797                 Wp   =           90.58335
     YDOT =       6063.109294  meter/sec      RA   =           39.14822  deg
     ZDOT =       3875.590441                 TA   =          219.40207
                                              MA   =          219.46340
                                              Ha   =            221.308  n.mi
                                              Hp   =            213.715
 
              M50 Cartesian                         J2K Cartesian  
    -----------------------------------       --------------------------------
     X    =       17743456.74                 X    =         5424724.80
     Y    =         865034.73  feet           Y    =          324232.76  meter
     Z    =      -13419789.80                 Z    =        -4064039.72
     XDOT =       8630.127287                 XDOT =        2543.641856
     YDOT =      19892.090859  feet/sec       YDOT =        6092.039762  meter/sec
     ZDOT =      12715.191734                 ZDOT =        3888.157371
 
              TDR Cartesian                         TDR Cartesian  
    -----------------------------------       --------------------------------
     X    =        4708955.26                 X    =         1435289.56
     Y    =      -17217983.77  feet           Y    =        -5248041.45  meter
     Z    =      -13305490.44                 Z    =        -4055513.49
     XDOT =      20017.850074                 XDOT =        6101.440702
     YDOT =      -4375.090032  feet/sec       YDOT =       -1333.527442  meter/sec
     ZDOT =      12768.634948                 ZDOT =        3891.879932
  
  
    The mean element set is posted at the UTC for which position is
    just north of the next ascending node relative to the above
    vector time
 
 
    TWO LINE MEAN ELEMENT SET
  
    ISS
    1 25544U 98067A   16100.67554318  .00016717  00000-0  10270-3 0  9161
    2 25544  51.6444  39.7548 0002662  37.0809 323.0527 15.54410150 34325
  
  
    Satellite: ISS
    Catalog Number: 25544
    Epoch time:      16100.67554318   =   yrday.fracday
    Element set:     916
    Inclination:       51.6444  deg
    RA of node:        39.7548  deg
    Eccentricity:     .0002662     
    Arg of perigee:    37.0809  deg
    Mean anomaly:     323.0527  deg
    Mean motion:   15.54410150  rev/day
    Decay rate:    1.67170E-04  rev/day^2
    Epoch rev:            3432
    Checksum:              290
 
 
    Coasting Arc #18 (Orbit 3447)
    ---------------------------------------
 
    Vector Time (GMT): 2016/101/16:00:00.000
    Vector Time (MET): N/A
    Weight (LBS)     : 941215.1
 
              M50 Cartesian                         M50 Keplerian  
    -----------------------------------       --------------------------------
     X    =       -6030248.11                 A    =         6785495.54  meter
     Y    =       -1547034.44  meter          E    =           .0015167
     Z    =        2684961.20                 I    =           51.86447
     XDOT =       -904.448122                 Wp   =           93.03442
     YDOT =      -5557.745250  meter/sec      RA   =           34.18032  deg
     ZDOT =      -5209.077937                 TA   =           56.73440
                                              MA   =           56.58917
                                              Ha   =            221.385  n.mi
                                              Hp   =            213.522
 
